{"type": "FeatureCollection", "features": [{"type": "Feature", "properties": {"norad_id": 32275, "name": "COSMOS 2433 (720)", "group": "glo-ops", "lat": 64.98681146100637, "lon": 37.369458279198305, "alt_km": 19135.68325968566, "timestamp": "2025-12-26T19:22:39.167662+00:00", "meta": {"OBJECT_NAME": "COSMOS 2433 (720)", "OBJECT_ID": "2007-052A", "EPOCH": "2025-12-26T05:29:12.755904", "MEAN_MOTION": 2.13104171, "ECCENTRICITY": 0.00050813, "INCLINATION": 65.6759, "RA_OF_ASC_NODE": 321.753, "ARG_OF_PERICENTER": 257.4758, "MEAN_ANOMALY": 102.4712, "EPHEMERIS_TYPE": 0, "CLASSIFICATION_TYPE": "U", "NORAD_CAT_ID": 32275, "ELEMENT_SET_NO": 999, "REV_AT_EPOCH": 14137, "BSTAR": 0, "MEAN_MOTION_DOT": -3.3e-07, "MEAN_MOTION_DDOT": 0}, "tle": {"line1": "1 32275U 07052A   25360.22861986 -.00000033  00000+0  00000+0 0  9996", "line2": "2 32275  65.6759 321.7530 0005081 257.4758 102.4712  2.13104171141375"}}, "geometry": {"type": "Point", "coordinates": [37.369458279198305, 64.98681146100637]}}, {"type": "Feature", "properties": {"norad_id": 32276, "name": "COSMOS 2432 (719)", "group": "glo-ops", "lat": 25.791408511370488, "lon": -25.54747254097371, "alt_km": 19118.62975386372, "timestamp": "2025-12-26T19:22:39.167685+00:00", "meta": {"OBJECT_NAME": "COSMOS 2432 (719)", "OBJECT_ID": "2007-052B", "EPOCH": "2025-12-26T12:56:48.624288", "MEAN_MOTION": 2.13103372, "ECCENTRICITY": 0.00114143, "INCLINATION": 65.6918, "RA_OF_ASC_NODE": 321.8672, "ARG_OF_PERICENTER": 315.0797, "MEAN_ANOMALY": 227.7528, "EPHEMERIS_TYPE": 0, "CLASSIFICATION_TYPE": "U", "NORAD_CAT_ID": 32276, "ELEMENT_SET_NO": 999, "REV_AT_EPOCH": 14140, "BSTAR": 0, "MEAN_MOTION_DOT": -3.4e-07, "MEAN_MOTION_DDOT": 0}, "tle": {"line1": "1 32276U 07052B   25360.53945167 -.00000034  00000+0  00000+0 0  9996", "line2": "2 32276  65.6918 321.8672 0011414 315.0797 227.7528  2.13103372141404"}}, "geometry": {"type": "Point", "coordinates": [-25.54747254097371, 25.791408511370488]}}, {"type": "Feature", "properties": {"norad_id": 32393, "name": "COSMOS 2434 (721)", "group": "glo-ops", "lat": -22.881063045465268, "lon": -173.99047322463093, "alt_km": 19134.90383243585, "timestamp": "2025-12-26T19:22:39.167699+00:00", "meta": {"OBJECT_NAME": "COSMOS 2434 (721)", "OBJECT_ID": "2007-065A", "EPOCH": "2025-12-26T03:18:00.211680", "MEAN_MOTION": 2.13101396, "ECCENTRICITY": 0.00048072, "INCLINATION": 64.3159, "RA_OF_ASC_NODE": 197.7509, "ARG_OF_PERICENTER": 72.2168, "MEAN_ANOMALY": 108.4046, "EPHEMERIS_TYPE": 0, "CLASSIFICATION_TYPE": "U", "NORAD_CAT_ID": 32393, "ELEMENT_SET_NO": 999, "REV_AT_EPOCH": 14008, "BSTAR": 0, "MEAN_MOTION_DOT": 1.11e-06, "MEAN_MOTION_DDOT": 0}, "tle": {"line1": "1 32393U 07065A   25360.13750245  .00000111  00000+0  00000+0 0  9992", "line2": "2 32393  64.3159 197.7509 0004807  72.2168 108.4046  2.13101396140085"}}, "geometry": {"type": "Point", "coordinates": [-173.99047322463093, -22.881063045465268]}}, {"type": "Feature", "properties": {"norad_id": 32395, "name": "COSMOS 2436 (723)", "group": "glo-ops", "lat": 59.11714189779905, "lon": -35.77048734815105, "alt_km": 19129.29982462698, "timestamp": "2025-12-26T19:22:39.167712+00:00", "meta": {"OBJECT_NAME": "COSMOS 2436 (723)", "OBJECT_ID": "2007-065C", "EPOCH": "2025-12-26T09:51:08.082144", "MEAN_MOTION": 2.13100172, "ECCENTRICITY": 0.00178128, "INCLINATION": 64.3246, "RA_OF_ASC_NODE": 197.8121, "ARG_OF_PERICENTER": 10.2944, "MEAN_ANOMALY": 152.7872, "EPHEMERIS_TYPE": 0, "CLASSIFICATION_TYPE": "U", "NORAD_CAT_ID": 32395, "ELEMENT_SET_NO": 999, "REV_AT_EPOCH": 14004, "BSTAR": 0, "MEAN_MOTION_DOT": 1.14e-06, "MEAN_MOTION_DDOT": 0}, "tle": {"line1": "1 32395U 07065C   25360.41051021  .00000114  00000+0  00000+0 0  9994", "line2": "2 32395  64.3246 197.8121 0017812  10.2944 152.7872  2.13100172140045"}}, "geometry": {"type": "Point", "coordinates": [-35.77048734815105, 59.11714189779905]}}, {"type": "Feature", "properties": {"norad_id": 36111, "name": "COSMOS 2456 (730)", "group": "glo-ops", "lat": 42.55824551781022, "lon": -128.57698910815472, "alt_km": 19133.835773912087, "timestamp": "2025-12-26T19:22:39.167724+00:00", "meta": {"OBJECT_NAME": "COSMOS 2456 (730)", "OBJECT_ID": "2009-070A", "EPOCH": "2025-12-26T06:16:15.549312", "MEAN_MOTION": 2.13103733, "ECCENTRICITY": 0.0003681, "INCLINATION": 64.907, "RA_OF_ASC_NODE": 76.8759, "ARG_OF_PERICENTER": 294.867, "MEAN_ANOMALY": 137.8789, "EPHEMERIS_TYPE": 0, "CLASSIFICATION_TYPE": "U", "NORAD_CAT_ID": 36111, "ELEMENT_SET_NO": 999, "REV_AT_EPOCH": 12474, "BSTAR": 0, "MEAN_MOTION_DOT": -8e-08, "MEAN_MOTION_DDOT": 0}, "tle": {"line1": "1 36111U 09070A   25360.26129108 -.00000008  00000+0  00000+0 0  9990", "line2": "2 36111  64.9070  76.8759 0003681 294.8670 137.8789  2.13103733124740"}}, "geometry": {"type": "Point", "coordinates": [-128.57698910815472, 42.55824551781022]}}, {"type": "Feature", "properties": {"norad_id": 36112, "name": "COSMOS 2457 (733)", "group": "glo-ops", "lat": -63.36248014046851, "lon": -34.29178923572404, "alt_km": 19137.769730188324, "timestamp": "2025-12-26T19:22:39.167736+00:00", "meta": {"OBJECT_NAME": "COSMOS 2457 (733)", "OBJECT_ID": "2009-070B", "EPOCH": "2025-12-26T13:03:04.060800", "MEAN_MOTION": 2.13101072, "ECCENTRICITY": 0.00043952, "INCLINATION": 64.8927, "RA_OF_ASC_NODE": 76.7135, "ARG_OF_PERICENTER": 164.2484, "MEAN_ANOMALY": 254.2411, "EPHEMERIS_TYPE": 0, "CLASSIFICATION_TYPE": "U", "NORAD_CAT_ID": 36112, "ELEMENT_SET_NO": 999, "REV_AT_EPOCH": 12475, "BSTAR": 0, "MEAN_MOTION_DOT": -1e-07, "MEAN_MOTION_DDOT": 0}, "tle": {"line1": "1 36112U 09070B   25360.54379700 -.00000010  00000+0  00000+0 0  9990", "line2": "2 36112  64.8927  76.7135 0004395 164.2484 254.2411  2.13101072124755"}}, "geometry": {"type": "Point", "coordinates": [-34.29178923572404, -63.36248014046851]}}, {"type": "Feature", "properties": {"norad_id": 36402, "name": "COSMOS 2460 (732)", "group": "glo-ops", "lat": -63.828772628374224, "lon": -151.84264266691514, "alt_km": 19130.326893363108, "timestamp": "2025-12-26T19:22:39.167747+00:00", "meta": {"OBJECT_NAME": "COSMOS 2460 (732)", "OBJECT_ID": "2010-007C", "EPOCH": "2025-12-25T05:13:15.714336", "MEAN_MOTION": 2.13106358, "ECCENTRICITY": 0.00024876, "INCLINATION": 65.5229, "RA_OF_ASC_NODE": 320.3522, "ARG_OF_PERICENTER": 284.3328, "MEAN_ANOMALY": 196.3839, "EPHEMERIS_TYPE": 0, "CLASSIFICATION_TYPE": "U", "NORAD_CAT_ID": 36402, "ELEMENT_SET_NO": 999, "REV_AT_EPOCH": 12302, "BSTAR": 0, "MEAN_MOTION_DOT": -3.2e-07, "MEAN_MOTION_DDOT": 0}, "tle": {"line1": "1 36402U 10007C   25359.21754299 -.00000032  00000+0  00000+0 0  9990", "line2": "2 36402  65.5229 320.3522 0002487 284.3328 196.3839  2.13106358123020"}}, "geometry": {"type": "Point", "coordinates": [-151.84264266691514, -63.828772628374224]}}, {"type": "Feature", "properties": {"norad_id": 37867, "name": "COSMOS 2476 (744)", "group": "glo-ops", "lat": 35.76042502766579, "lon": 98.15666940639389, "alt_km": 19186.231873930163, "timestamp": "2025-12-26T19:22:39.167759+00:00", "meta": {"OBJECT_NAME": "COSMOS 2476 (744)", "OBJECT_ID": "2011-064A", "EPOCH": "2025-12-26T10:11:25.908288", "MEAN_MOTION": 2.13103879, "ECCENTRICITY": 0.00245779, "INCLINATION": 65.169, "RA_OF_ASC_NODE": 78.7087, "ARG_OF_PERICENTER": 235.1101, "MEAN_ANOMALY": 231.2674, "EPHEMERIS_TYPE": 0, "CLASSIFICATION_TYPE": "U", "NORAD_CAT_ID": 37867, "ELEMENT_SET_NO": 999, "REV_AT_EPOCH": 11008, "BSTAR": 0, "MEAN_MOTION_DOT": -7e-08, "MEAN_MOTION_DDOT": 0}, "tle": {"line1": "1 37867U 11064A   25360.42460542 -.00000007  00000+0  00000+0 0  9992", "line2": "2 37867  65.1690  78.7087 0024577 235.1101 231.2674  2.13103879110084"}}, "geometry": {"type": "Point", "coordinates": [98.15666940639389, 35.76042502766579]}}, {"type": "Feature", "properties": {"norad_id": 37868, "name": "COSMOS 2477 (745)", "group": "glo-ops", "lat": -36.44267928921941, "lon": -81.25903441755241, "alt_km": 19081.206960252315, "timestamp": "2025-12-26T19:22:39.167770+00:00", "meta": {"OBJECT_NAME": "COSMOS 2477 (745)", "OBJECT_ID": "2011-064B", "EPOCH": "2025-12-24T15:22:57.950400", "MEAN_MOTION": 2.13103036, "ECCENTRICITY": 0.00215718, "INCLINATION": 65.1748, "RA_OF_ASC_NODE": 78.8466, "ARG_OF_PERICENTER": 235.4688, "MEAN_ANOMALY": 123.4303, "EPHEMERIS_TYPE": 0, "CLASSIFICATION_TYPE": "U", "NORAD_CAT_ID": 37868, "ELEMENT_SET_NO": 999, "REV_AT_EPOCH": 11003, "BSTAR": 0, "MEAN_MOTION_DOT": 1e-08, "MEAN_MOTION_DDOT": 0}, "tle": {"line1": "1 37868U 11064B   25358.64094850  .00000001  00000+0  00000+0 0  9992", "line2": "2 37868  65.1748  78.8466 0021571 235.4688 123.4303  2.13103036110036"}}, "geometry": {"type": "Point", "coordinates": [-81.25903441755241, -36.44267928921941]}}, {"type": "Feature", "properties": {"norad_id": 37869, "name": "COSMOS 2475 (743)", "group": "glo-ops", "lat": 3.1526328791194174, "lon": -102.65363163503946, "alt_km": 19109.580610010493, "timestamp": "2025-12-26T19:22:39.167782+00:00", "meta": {"OBJECT_NAME": "COSMOS 2475 (743)", "OBJECT_ID": "2011-064C", "EPOCH": "2025-12-26T02:48:59.782176", "MEAN_MOTION": 2.13101658, "ECCENTRICITY": 0.00268162, "INCLINATION": 65.1822, "RA_OF_ASC_NODE": 78.8169, "ARG_OF_PERICENTER": 249.2724, "MEAN_ANOMALY": 118.1607, "EPHEMERIS_TYPE": 0, "CLASSIFICATION_TYPE": "U", "NORAD_CAT_ID": 37869, "ELEMENT_SET_NO": 999, "REV_AT_EPOCH": 11008, "BSTAR": 0, "MEAN_MOTION_DOT": -5e-08, "MEAN_MOTION_DDOT": 0}, "tle": {"line1": "1 37869U 11064C   25360.11735859 -.00000005  00000+0  00000+0 0  9994", "line2": "2 37869  65.1822  78.8169 0026816 249.2724 118.1607  2.13101658110082"}}, "geometry": {"type": "Point", "coordinates": [-102.65363163503946, 3.1526328791194174]}}]}